ONEWEB-0218             
1 48214U 21031E   25362.29297428  .00000040  00000+0  72930-4 0  9995
2 48214  87.9017 323.7383 0001383  50.7893 309.3360 13.14503905225924
ONEWEB-0209             
1 48215U 21031F   25361.90129116  .00000199  00000+0  50326-3 0  9990
2 48215  87.9008 323.8511 0001614  86.6779 273.4535 13.14502047225872
ONEWEB-0198             
1 48216U 21031G   25362.26615466  .00000535  00000+0  14099-2 0  9999
2 48216  87.9003 323.7756 0001437  78.3305 281.7986 13.14499303226035
ONEWEB-0189             
1 48217U 21031H   25361.97422860  .00000186  00000+0  46606-3 0  9993
2 48217  87.9009 323.8082 0001447  76.6734 283.4557 13.14500644225733
ONEWEB-0196             
1 48218U 21031J   25362.18038119  .00000004  00000+0 -22632-4 0  9992
2 48218  87.9004 323.7805 0001604  80.6556 279.4755 13.14505159225767
ONEWEB-0183             
1 48219U 21031K   25362.30724996 -.00000164  00000+0 -47795-3 0  9996
2 48219  87.8993 323.7582 0001851  88.1096 272.0246 13.14501604225879
ONEWEB-0185             
1 48220U 21031L   25362.18117107  .00000052  00000+0  10617-3 0  9991
2 48220  87.9010 323.7626 0001617  94.9724 265.1590 13.14504353225783
ONEWEB-0187             
1 48221U 21031M   25362.16121880 -.00000149  00000+0 -43576-3 0  9992
2 48221  87.9002 323.8059 0001533  86.6087 273.5218 13.14502038225792
ONEWEB-0192             
1 48222U 21031N   25362.13123154  .00000255  00000+0  65239-3 0  9992
2 48222  87.8998 323.8014 0001723  79.4266 280.7058 13.14502489225700
ONEWEB-0219             
1 48223U 21031P   25362.26284541  .00000089  00000+0  20523-3 0  9997
2 48223  87.9006 323.7544 0001586  88.5031 271.6280 13.14500938225924
ONEWEB-0202             
1 48224U 21031Q   25361.93934331 -.00000094  00000+0 -28908-3 0  9993
2 48224  87.8997 323.8300 0001293  61.7130 298.4130 13.14502119225869
ONEWEB-0204             
1 48225U 21031R   25362.27792558  .00001233  00000+0  32919-2 0  9995
2 48225  87.9009 323.7534 0001947  90.0323 270.1030 13.14497948225801
ONEWEB-0205             
1 48226U 21031S   25361.94886030 -.00000055  00000+0 -18342-3 0  9996
2 48226  87.9006 323.8119 0001632  86.4607 273.6709 13.14500873225773
ONEWEB-0206             
1 48227U 21031T   25361.92190864 -.00000150  00000+0 -44002-3 0  9996
2 48227  87.9017 323.8095 0001982  75.9146 284.2204 13.14503469225725
ONEWEB-0182             
1 48228U 21031U   25362.29773543 -.00000025  00000+0 -10074-3 0  9992
2 48228  87.8998 323.7599 0001888  88.3422 271.7924 13.14502004225983
ONEWEB-0186             
1 48229U 21031V   25361.92824395 -.00000194  00000+0 -55669-3 0  9990
2 48229  87.9009 323.8128 0001710  83.3461 276.7863 13.14501769225882
ONEWEB-0181             
1 48230U 21031W   25362.28663401  .00000146  00000+0  35970-3 0  9999
2 48230  87.8996 323.7930 0001587  79.8374 280.2934 13.14501098225786
