[{"OBJECT_NAME":"ONEWEB-0218","OBJECT_ID":"2021-031E","EPOCH":"2025-12-28T07:01:52.977792","MEAN_MOTION":13.14503905,"ECCENTRICITY":0.00013831,"INCLINATION":87.9017,"RA_OF_ASC_NODE":323.7383,"ARG_OF_PERICENTER":50.7893,"MEAN_ANOMALY":309.336,"EPHEMERIS_TYPE":0,"CLASSIFICATION_TYPE":"U","NORAD_CAT_ID":48214,"ELEMENT_SET_NO":999,"REV_AT_EPOCH":22592,"BSTAR":7.2930166e-5,"MEAN_MOTION_DOT":4.0e-7,"MEAN_MOTION_DDOT":0},{"OBJECT_NAME":"ONEWEB-0209","OBJECT_ID":"2021-031F","EPOCH":"2025-12-27T21:37:51.556224","MEAN_MOTION":13.14502047,"ECCENTRICITY":0.0001614,"INCLINATION":87.9008,"RA_OF_ASC_NODE":323.8511,"ARG_OF_PERICENTER":86.6779,"MEAN_ANOMALY":273.4535,"EPHEMERIS_TYPE":0,"CLASSIFICATION_TYPE":"U","NORAD_CAT_ID":48215,"ELEMENT_SET_NO":999,"REV_AT_EPOCH":22587,"BSTAR":0.00050326,"MEAN_MOTION_DOT":1.99e-6,"MEAN_MOTION_DDOT":0},{"OBJECT_NAME":"ONEWEB-0198","OBJECT_ID":"2021-031G","EPOCH":"2025-12-28T06:23:15.762624","MEAN_MOTION":13.14499303,"ECCENTRICITY":0.00014377,"INCLINATION":87.9003,"RA_OF_ASC_NODE":323.7756,"ARG_OF_PERICENTER":78.3305,"MEAN_ANOMALY":281.7986,"EPHEMERIS_TYPE":0,"CLASSIFICATION_TYPE":"U","NORAD_CAT_ID":48216,"ELEMENT_SET_NO":999,"REV_AT_EPOCH":22603,"BSTAR":0.0014099029,"MEAN_MOTION_DOT":5.35e-6,"MEAN_MOTION_DDOT":0},{"OBJECT_NAME":"ONEWEB-0189","OBJECT_ID":"2021-031H","EPOCH":"2025-12-27T23:22:53.351040","MEAN_MOTION":13.14500644,"ECCENTRICITY":0.0001447,"INCLINATION":87.9009,"RA_OF_ASC_NODE":323.8082,"ARG_OF_PERICENTER":76.6734,"MEAN_ANOMALY":283.4557,"EPHEMERIS_TYPE":0,"CLASSIFICATION_TYPE":"U","NORAD_CAT_ID":48217,"ELEMENT_SET_NO":999,"REV_AT_EPOCH":22573,"BSTAR":0.00046606,"MEAN_MOTION_DOT":1.86e-6,"MEAN_MOTION_DDOT":0},{"OBJECT_NAME":"ONEWEB-0196","OBJECT_ID":"2021-031J","EPOCH":"2025-12-28T04:19:44.934816","MEAN_MOTION":13.14505159,"ECCENTRICITY":0.00016044,"INCLINATION":87.9004,"RA_OF_ASC_NODE":323.7805,"ARG_OF_PERICENTER":80.6556,"MEAN_ANOMALY":279.4755,"EPHEMERIS_TYPE":0,"CLASSIFICATION_TYPE":"U","NORAD_CAT_ID":48218,"ELEMENT_SET_NO":999,"REV_AT_EPOCH":22576,"BSTAR":-2.2632156e-5,"MEAN_MOTION_DOT":4.0e-8,"MEAN_MOTION_DDOT":0},{"OBJECT_NAME":"ONEWEB-0183","OBJECT_ID":"2021-031K","EPOCH":"2025-12-28T07:22:26.396544","MEAN_MOTION":13.14501604,"ECCENTRICITY":0.00018513,"INCLINATION":87.8993,"RA_OF_ASC_NODE":323.7582,"ARG_OF_PERICENTER":88.1096,"MEAN_ANOMALY":272.0246,"EPHEMERIS_TYPE":0,"CLASSIFICATION_TYPE":"U","NORAD_CAT_ID":48219,"ELEMENT_SET_NO":999,"REV_AT_EPOCH":22587,"BSTAR":-0.00047795032,"MEAN_MOTION_DOT":-1.64e-6,"MEAN_MOTION_DDOT":0},{"OBJECT_NAME":"ONEWEB-0185","OBJECT_ID":"2021-031L","EPOCH":"2025-12-28T04:20:53.180448","MEAN_MOTION":13.14504353,"ECCENTRICITY":0.00016176,"INCLINATION":87.901,"RA_OF_ASC_NODE":323.7626,"ARG_OF_PERICENTER":94.9724,"MEAN_ANOMALY":265.159,"EPHEMERIS_TYPE":0,"CLASSIFICATION_TYPE":"U","NORAD_CAT_ID":48220,"ELEMENT_SET_NO":999,"REV_AT_EPOCH":22578,"BSTAR":0.00010617356,"MEAN_MOTION_DOT":5.2e-7,"MEAN_MOTION_DDOT":0},{"OBJECT_NAME":"ONEWEB-0187","OBJECT_ID":"2021-031M","EPOCH":"2025-12-28T03:52:09.304320","MEAN_MOTION":13.14502038,"ECCENTRICITY":0.00015333,"INCLINATION":87.9002,"RA_OF_ASC_NODE":323.8059,"ARG_OF_PERICENTER":86.6087,"MEAN_ANOMALY":273.5218,"EPHEMERIS_TYPE":0,"CLASSIFICATION_TYPE":"U","NORAD_CAT_ID":48221,"ELEMENT_SET_NO":999,"REV_AT_EPOCH":22579,"BSTAR":-0.00043575784,"MEAN_MOTION_DOT":-1.49e-6,"MEAN_MOTION_DDOT":0},{"OBJECT_NAME":"ONEWEB-0192","OBJECT_ID":"2021-031N","EPOCH":"2025-12-28T03:08:58.405056","MEAN_MOTION":13.14502489,"ECCENTRICITY":0.00017232,"INCLINATION":87.8998,"RA_OF_ASC_NODE":323.8014,"ARG_OF_PERICENTER":79.4266,"MEAN_ANOMALY":280.7058,"EPHEMERIS_TYPE":0,"CLASSIFICATION_TYPE":"U","NORAD_CAT_ID":48222,"ELEMENT_SET_NO":999,"REV_AT_EPOCH":22570,"BSTAR":0.00065238625,"MEAN_MOTION_DOT":2.55e-6,"MEAN_MOTION_DDOT":0},{"OBJECT_NAME":"ONEWEB-0219","OBJECT_ID":"2021-031P","EPOCH":"2025-12-28T06:18:29.843424","MEAN_MOTION":13.14500938,"ECCENTRICITY":0.00015867,"INCLINATION":87.9006,"RA_OF_ASC_NODE":323.7544,"ARG_OF_PERICENTER":88.5031,"MEAN_ANOMALY":271.628,"EPHEMERIS_TYPE":0,"CLASSIFICATION_TYPE":"U","NORAD_CAT_ID":48223,"ELEMENT_SET_NO":999,"REV_AT_EPOCH":22592,"BSTAR":0.00020523126,"MEAN_MOTION_DOT":8.9e-7,"MEAN_MOTION_DDOT":0},{"OBJECT_NAME":"ONEWEB-0202","OBJECT_ID":"2021-031Q","EPOCH":"2025-12-27T22:32:39.261984","MEAN_MOTION":13.14502119,"ECCENTRICITY":0.0001293,"INCLINATION":87.8997,"RA_OF_ASC_NODE":323.83,"ARG_OF_PERICENTER":61.713,"MEAN_ANOMALY":298.413,"EPHEMERIS_TYPE":0,"CLASSIFICATION_TYPE":"U","NORAD_CAT_ID":48224,"ELEMENT_SET_NO":999,"REV_AT_EPOCH":22586,"BSTAR":-0.00028908,"MEAN_MOTION_DOT":-9.4e-7,"MEAN_MOTION_DDOT":0},{"OBJECT_NAME":"ONEWEB-0204","OBJECT_ID":"2021-031R","EPOCH":"2025-12-28T06:40:12.770112","MEAN_MOTION":13.14497948,"ECCENTRICITY":0.00019474,"INCLINATION":87.9009,"RA_OF_ASC_NODE":323.7534,"ARG_OF_PERICENTER":90.0323,"MEAN_ANOMALY":270.103,"EPHEMERIS_TYPE":0,"CLASSIFICATION_TYPE":"U","NORAD_CAT_ID":48225,"ELEMENT_SET_NO":999,"REV_AT_EPOCH":22580,"BSTAR":0.0032918948,"MEAN_MOTION_DOT":1.233e-5,"MEAN_MOTION_DDOT":0},{"OBJECT_NAME":"ONEWEB-0205","OBJECT_ID":"2021-031S","EPOCH":"2025-12-27T22:46:21.529920","MEAN_MOTION":13.14500873,"ECCENTRICITY":0.0001632,"INCLINATION":87.9006,"RA_OF_ASC_NODE":323.8119,"ARG_OF_PERICENTER":86.4607,"MEAN_ANOMALY":273.6709,"EPHEMERIS_TYPE":0,"CLASSIFICATION_TYPE":"U","NORAD_CAT_ID":48226,"ELEMENT_SET_NO":999,"REV_AT_EPOCH":22577,"BSTAR":-0.00018342,"MEAN_MOTION_DOT":-5.5e-7,"MEAN_MOTION_DDOT":0},{"OBJECT_NAME":"ONEWEB-0206","OBJECT_ID":"2021-031T","EPOCH":"2025-12-27T22:07:32.906496","MEAN_MOTION":13.14503469,"ECCENTRICITY":0.00019825,"INCLINATION":87.9017,"RA_OF_ASC_NODE":323.8095,"ARG_OF_PERICENTER":75.9146,"MEAN_ANOMALY":284.2204,"EPHEMERIS_TYPE":0,"CLASSIFICATION_TYPE":"U","NORAD_CAT_ID":48227,"ELEMENT_SET_NO":999,"REV_AT_EPOCH":22572,"BSTAR":-0.00044002373,"MEAN_MOTION_DOT":-1.5e-6,"MEAN_MOTION_DDOT":0},{"OBJECT_NAME":"ONEWEB-0182","OBJECT_ID":"2021-031U","EPOCH":"2025-12-28T07:08:44.341152","MEAN_MOTION":13.14502004,"ECCENTRICITY":0.00018886,"INCLINATION":87.8998,"RA_OF_ASC_NODE":323.7599,"ARG_OF_PERICENTER":88.3422,"MEAN_ANOMALY":271.7924,"EPHEMERIS_TYPE":0,"CLASSIFICATION_TYPE":"U","NORAD_CAT_ID":48228,"ELEMENT_SET_NO":999,"REV_AT_EPOCH":22598,"BSTAR":-0.00010074248,"MEAN_MOTION_DOT":-2.5e-7,"MEAN_MOTION_DDOT":0},{"OBJECT_NAME":"ONEWEB-0186","OBJECT_ID":"2021-031V","EPOCH":"2025-12-27T22:16:40.277280","MEAN_MOTION":13.14501769,"ECCENTRICITY":0.00017101,"INCLINATION":87.9009,"RA_OF_ASC_NODE":323.8128,"ARG_OF_PERICENTER":83.3461,"MEAN_ANOMALY":276.7863,"EPHEMERIS_TYPE":0,"CLASSIFICATION_TYPE":"U","NORAD_CAT_ID":48229,"ELEMENT_SET_NO":999,"REV_AT_EPOCH":22588,"BSTAR":-0.00055669167,"MEAN_MOTION_DOT":-1.94e-6,"MEAN_MOTION_DDOT":0},{"OBJECT_NAME":"ONEWEB-0181","OBJECT_ID":"2021-031W","EPOCH":"2025-12-28T06:52:45.178464","MEAN_MOTION":13.14501098,"ECCENTRICITY":0.00015875,"INCLINATION":87.8996,"RA_OF_ASC_NODE":323.793,"ARG_OF_PERICENTER":79.8374,"MEAN_ANOMALY":280.2934,"EPHEMERIS_TYPE":0,"CLASSIFICATION_TYPE":"U","NORAD_CAT_ID":48230,"ELEMENT_SET_NO":999,"REV_AT_EPOCH":22578,"BSTAR":0.00035969815,"MEAN_MOTION_DOT":1.46e-6,"MEAN_MOTION_DDOT":0}]
